{
  "type": "FeatureCollection",
  "features": [
    {
      "type": "Feature",
      "properties": {
        "norad_id": 41018,
        "name": "FENGYUN 1C DEB",
        "group": "fengyun-1c-debris",
        "lat": -73.74298994890898,
        "lon": 69.58815425637134,
        "alt_km": 1199.7643628164005,
        "timestamp": "2025-12-08T03:50:07.287210+00:00",
        "meta_object_name": "FENGYUN 1C DEB",
        "meta_object_id": "1999-025EXY",
        "meta_epoch": "2025-11-14T13:55:42.109536",
        "meta_mean_motion": 13.52269451,
        "meta_eccentricity": 0.03030631,
        "meta_inclination": 99.9325,
        "meta_ra_of_asc_node": 262.8906,
        "meta_arg_of_pericenter": 189.0805,
        "meta_mean_anomaly": 170.4772,
        "meta_ephemeris_type": 0,
        "meta_classification_type": "U",
        "meta_norad_cat_id": 41018,
        "meta_element_set_no": 999,
        "meta_rev_at_epoch": 87794,
        "meta_bstar": 0.0023936359,
        "meta_mean_motion_dot": 2.062e-05,
        "meta_mean_motion_ddot": 0,
        "tle_line1": "1 41018U 99025EXY 25318.58034849  .00002062  00000+0  23936-2 0  9993",
        "tle_line2": "2 41018  99.9325 262.8906 0303063 189.0805 170.4772 13.52269451877943"
      },
      "geometry": {
        "type": "Point",
        "coordinates": [
          69.58815425637134,
          -73.74298994890898
        ]
      }
    },
    {
      "type": "Feature",
      "properties": {
        "norad_id": 41822,
        "name": "FENGYUN 1C DEB",
        "group": "fengyun-1c-debris",
        "lat": -0.9316766282248714,
        "lon": -131.7493865621837,
        "alt_km": 788.2585591021252,
        "timestamp": "2025-12-08T03:50:07.287219+00:00",
        "meta_object_name": "FENGYUN 1C DEB",
        "meta_object_id": "1999-025EXZ",
        "meta_epoch": "2025-12-07T03:23:16.548000",
        "meta_mean_motion": 14.24735337,
        "meta_eccentricity": 0.00550868,
        "meta_inclination": 98.7319,
        "meta_ra_of_asc_node": 47.381,
        "meta_arg_of_pericenter": 236.4942,
        "meta_mean_anomaly": 123.0966,
        "meta_ephemeris_type": 0,
        "meta_classification_type": "U",
        "meta_norad_cat_id": 41822,
        "meta_element_set_no": 999,
        "meta_rev_at_epoch": 47293,
        "meta_bstar": 0.0025628204,
        "meta_mean_motion_dot": 6.023e-05,
        "meta_mean_motion_ddot": 0,
        "tle_line1": "1 41822U 99025EXZ 25341.14116375  .00006023  00000+0  25628-2 0  9990",
        "tle_line2": "2 41822  98.7319  47.3810 0055086 236.4942 123.0966 14.24735337472934"
      },
      "geometry": {
        "type": "Point",
        "coordinates": [
          -131.7493865621837,
          -0.9316766282248714
        ]
      }
    },
    {
      "type": "Feature",
      "properties": {
        "norad_id": 41823,
        "name": "FENGYUN 1C DEB",
        "group": "fengyun-1c-debris",
        "lat": -80.50958478815014,
        "lon": 112.18382162577633,
        "alt_km": 787.8303383610628,
        "timestamp": "2025-12-08T03:50:07.287230+00:00",
        "meta_object_name": "FENGYUN 1C DEB",
        "meta_object_id": "1999-025EYA",
        "meta_epoch": "2025-12-07T02:56:03.536160",
        "meta_mean_motion": 14.23461459,
        "meta_eccentricity": 0.00543914,
        "meta_inclination": 98.7207,
        "meta_ra_of_asc_node": 44.4972,
        "meta_arg_of_pericenter": 244.4576,
        "meta_mean_anomaly": 115.0972,
        "meta_ephemeris_type": 0,
        "meta_classification_type": "U",
        "meta_norad_cat_id": 41823,
        "meta_element_set_no": 999,
        "meta_rev_at_epoch": 47278,
        "meta_bstar": 0.0023838117,
        "meta_mean_motion_dot": 5.459e-05,
        "meta_mean_motion_ddot": 0,
        "tle_line1": "1 41823U 99025EYA 25341.12226315  .00005459  00000+0  23838-2 0  9998",
        "tle_line2": "2 41823  98.7207  44.4972 0054391 244.4576 115.0972 14.23461459472789"
      },
      "geometry": {
        "type": "Point",
        "coordinates": [
          112.18382162577633,
          -80.50958478815014
        ]
      }
    },
    {
      "type": "Feature",
      "properties": {
        "norad_id": 41824,
        "name": "FENGYUN 1C DEB",
        "group": "fengyun-1c-debris",
        "lat": 51.7601998102844,
        "lon": -122.53950676615864,
        "alt_km": 822.5111418780798,
        "timestamp": "2025-12-08T03:50:07.287242+00:00",
        "meta_object_name": "FENGYUN 1C DEB",
        "meta_object_id": "1999-025EYB",
        "meta_epoch": "2025-12-07T03:37:37.069536",
        "meta_mean_motion": 14.24101608,
        "meta_eccentricity": 0.00569676,
        "meta_inclination": 98.7312,
        "meta_ra_of_asc_node": 45.2134,
        "meta_arg_of_pericenter": 243.3425,
        "meta_mean_anomaly": 116.1912,
        "meta_ephemeris_type": 0,
        "meta_classification_type": "U",
        "meta_norad_cat_id": 41824,
        "meta_element_set_no": 999,
        "meta_rev_at_epoch": 47280,
        "meta_bstar": 0.0025116112,
        "meta_mean_motion_dot": 5.835e-05,
        "meta_mean_motion_ddot": 0,
        "tle_line1": "1 41824U 99025EYB 25341.15112349  .00005835  00000+0  25116-2 0  9992",
        "tle_line2": "2 41824  98.7312  45.2134 0056967 243.3425 116.1912 14.24101608472805"
      },
      "geometry": {
        "type": "Point",
        "coordinates": [
          -122.53950676615864,
          51.7601998102844
        ]
      }
    },
    {
      "type": "Feature",
      "properties": {
        "norad_id": 41825,
        "name": "FENGYUN 1C DEB",
        "group": "fengyun-1c-debris",
        "lat": -23.36137713065746,
        "lon": 55.01972896837668,
        "alt_km": 822.6116588341556,
        "timestamp": "2025-12-08T03:50:07.287252+00:00",
        "meta_object_name": "FENGYUN 1C DEB",
        "meta_object_id": "1999-025EYC",
        "meta_epoch": "2025-12-04T15:41:20.617440",
        "meta_mean_motion": 14.24990364,
        "meta_eccentricity": 0.00548668,
        "meta_inclination": 98.7445,
        "meta_ra_of_asc_node": 47.7152,
        "meta_arg_of_pericenter": 243.3482,
        "meta_mean_anomaly": 116.2072,
        "meta_ephemeris_type": 0,
        "meta_classification_type": "U",
        "meta_norad_cat_id": 41825,
        "meta_element_set_no": 999,
        "meta_rev_at_epoch": 47233,
        "meta_bstar": 0.0029898177,
        "meta_mean_motion_dot": 7.069e-05,
        "meta_mean_motion_ddot": 0,
        "tle_line1": "1 41825U 99025EYC 25338.65371085  .00007069  00000+0  29898-2 0  9990",
        "tle_line2": "2 41825  98.7445  47.7152 0054866 243.3482 116.2072 14.24990364472330"
      },
      "geometry": {
        "type": "Point",
        "coordinates": [
          55.01972896837668,
          -23.36137713065746
        ]
      }
    },
    {
      "type": "Feature",
      "properties": {
        "norad_id": 41826,
        "name": "FENGYUN 1C DEB",
        "group": "fengyun-1c-debris",
        "lat": -29.273837801390986,
        "lon": 52.93024320457027,
        "alt_km": 821.1584702754408,
        "timestamp": "2025-12-08T03:50:07.287262+00:00",
        "meta_object_name": "FENGYUN 1C DEB",
        "meta_object_id": "1999-025EYD",
        "meta_epoch": "2025-12-04T15:38:19.862592",
        "meta_mean_motion": 14.23663434,
        "meta_eccentricity": 0.0055166,
        "meta_inclination": 98.7346,
        "meta_ra_of_asc_node": 44.5031,
        "meta_arg_of_pericenter": 246.686,
        "meta_mean_anomaly": 112.8507,
        "meta_ephemeris_type": 0,
        "meta_classification_type": "U",
        "meta_norad_cat_id": 41826,
        "meta_element_set_no": 999,
        "meta_rev_at_epoch": 47245,
        "meta_bstar": 0.0031602,
        "meta_mean_motion_dot": 7.285e-05,
        "meta_mean_motion_ddot": 0,
        "tle_line1": "1 41826U 99025EYD 25338.65161878  .00007285  00000+0  31602-2 0  9994",
        "tle_line2": "2 41826  98.7346  44.5031 0055166 246.6860 112.8507 14.23663434472454"
      },
      "geometry": {
        "type": "Point",
        "coordinates": [
          52.93024320457027,
          -29.273837801390986
        ]
      }
    },
    {
      "type": "Feature",
      "properties": {
        "norad_id": 41827,
        "name": "FENGYUN 1C DEB",
        "group": "fengyun-1c-debris",
        "lat": -19.512029707505437,
        "lon": -131.74386206521987,
        "alt_km": 775.6491295762617,
        "timestamp": "2025-12-08T03:50:07.287272+00:00",
        "meta_object_name": "FENGYUN 1C DEB",
        "meta_object_id": "1999-025EYE",
        "meta_epoch": "2025-12-07T03:18:32.457888",
        "meta_mean_motion": 14.25206641,
        "meta_eccentricity": 0.00579613,
        "meta_inclination": 98.7433,
        "meta_ra_of_asc_node": 50.364,
        "meta_arg_of_pericenter": 229.5421,
        "meta_mean_anomaly": 130.0696,
        "meta_ephemeris_type": 0,
        "meta_classification_type": "U",
        "meta_norad_cat_id": 41827,
        "meta_element_set_no": 999,
        "meta_rev_at_epoch": 47251,
        "meta_bstar": 0.0027298528,
        "meta_mean_motion_dot": 6.489e-05,
        "meta_mean_motion_ddot": 0,
        "tle_line1": "1 41827U 99025EYE 25341.13787567  .00006489  00000+0  27299-2 0  9993",
        "tle_line2": "2 41827  98.7433  50.3640 0057961 229.5421 130.0696 14.25206641472514"
      },
      "geometry": {
        "type": "Point",
        "coordinates": [
          -131.74386206521987,
          -19.512029707505437
        ]
      }
    }
  ]
}